CCSDS_OEM_VERS = 1.0
CREATION_DATE  = 2017-05-11T11:01:06
ORIGINATOR     = GMAT USER

META_START
OBJECT_NAME          = MOPSSat_alt_35785_km_RAAN_0_071
OBJECT_ID            = SatId
CENTER_NAME          = Earth
REF_FRAME            = EME2000
TIME_SYSTEM          = UTC
START_TIME           = 2017-01-01T00:00:00.000
USEABLE_START_TIME   = 2017-01-01T00:00:00.000
USEABLE_STOP_TIME    = 2017-01-02T00:00:00.000
STOP_TIME            = 2017-01-02T00:00:00.000
INTERPOLATION        = Lagrange
INTERPOLATION_DEGREE = 7 
META_STOP


                                                                                   

2017-01-01T06:52:30.000  -9.862555407839704e+03   4.100147035004013e+04   8.448735626704205e-01  -2.989630025943913e+00  -7.161380510189311e-01   2.290671485601172e-05
2017-01-01T06:52:40.000  -9.892449084386526e+03   4.099429807410068e+04   8.451025938889299e-01  -2.989105075851521e+00  -7.183170864051956e-01   2.289952826503994e-05
2017-01-01T06:52:50.000  -9.922337503225952e+03   4.098710400980218e+04   8.453315532089154e-01  -2.988578538098841e+00  -7.204957354448285e-01   2.289233555931708e-05
2017-01-01T06:53:00.000  -9.952220648717434e+03   4.097988816095753e+04   8.455604405709539e-01  -2.988050412968057e+00  -7.226739969990915e-01   2.288513672438308e-05
2017-01-01T06:53:10.000  -9.982098505307473e+03   4.097265053137141e+04   8.457892559161254e-01  -2.987520700740739e+00  -7.248518699355965e-01   2.287793174575947e-05
2017-01-01T06:53:20.000  -1.001197105714192e+04   4.096539112493095e+04   8.460179991830373e-01  -2.986989401704489e+00  -7.270293531000457e-01   2.287072060905855e-05
2017-01-01T06:53:30.000  -1.004183828835401e+04   4.095810994553912e+04   8.462466703100352e-01  -2.986456516148072e+00  -7.292064453372293e-01   2.286350329989796e-05
2017-01-01T06:53:40.000  -1.007170018306411e+04   4.095080699711383e+04   8.464752692351994e-01  -2.985922044361323e+00  -7.313831454910047e-01   2.285627980390666e-05
2017-01-01T06:53:50.000  -1.010155672509328e+04   4.094348228366066e+04   8.467037958941567e-01  -2.985385986640503e+00  -7.335594523834185e-01   2.284905010677663e-05
2017-01-01T06:54:00.000  -1.013140789834936e+04   4.093613580917582e+04   8.469322502230312e-01  -2.984848343281175e+00  -7.357353648428486e-01   2.284181419418716e-05
2017-01-01T06:54:10.000  -1.016125368667193e+04   4.092876757768478e+04   8.471606321572572e-01  -2.984309114581035e+00  -7.379108816927032e-01   2.283457205183584e-05
2017-01-01T06:54:20.000  -1.019109407451707e+04   4.092137759307308e+04   8.473889416368241e-01  -2.983768300827542e+00  -7.400860018013365e-01   2.282732366529108e-05
2017-01-01T06:54:30.000  -1.022092904627084e+04   4.091396585925588e+04   8.476171786010164e-01  -2.983225902310306e+00  -7.422607240320034e-01   2.282006902014001e-05
2017-01-01T06:54:40.000  -1.025075858642656e+04   4.090653238013420e+04   8.478453429897743e-01  -2.982681919317905e+00  -7.444350472557820e-01   2.281280810195234e-05
2017-01-01T06:54:50.000  -1.028058267910788e+04   4.089907715971139e+04   8.480734347400418e-01  -2.982136352146396e+00  -7.466089703168125e-01   2.280554089637726e-05
2017-01-01T06:55:00.000  -1.031040130846246e+04   4.089160020199737e+04   8.483014537887805e-01  -2.981589201092314e+00  -7.487824920609916e-01   2.279826738906683e-05
2017-01-01T06:55:10.000  -1.034021445857412e+04   4.088410151103009e+04   8.485294000722975e-01  -2.981040466454236e+00  -7.509556113295657e-01   2.279098756569035e-05
2017-01-01T06:55:20.000  -1.037002211348702e+04   4.087658109087090e+04   8.487572735264320e-01  -2.980490148532453e+00  -7.531283269608995e-01   2.278370141194731e-05
2017-01-01T06:55:30.000  -1.039982425723511e+04   4.086903894559607e+04   8.489850740867796e-01  -2.979938247628333e+00  -7.553006377926172e-01   2.277640891354156e-05
2017-01-01T06:55:40.000  -1.042962087385284e+04   4.086147507929397e+04   8.492128016887719e-01  -2.979384764044127e+00  -7.574725426623887e-01   2.276911005618539e-05
2017-01-01T06:55:50.000  -1.045941194748199e+04   4.085388949603884e+04   8.494404562684980e-01  -2.978829698081051e+00  -7.596440404157111e-01   2.276180482555547e-05
2017-01-01T06:56:00.000  -1.048919746230038e+04   4.084628219990799e+04   8.496680377621535e-01  -2.978273050040535e+00  -7.618151299007129e-01   2.275449320732820e-05
2017-01-01T06:56:10.000  -1.051897740252189e+04   4.083865319498189e+04   8.498955461060459e-01  -2.977714820224235e+00  -7.639858099681623e-01   2.274717518717323e-05
2017-01-01T06:56:20.000  -1.054875175246733e+04   4.083100248532520e+04   8.501229812371309e-01  -2.977155008932645e+00  -7.661560794766221e-01   2.273985075075393e-05
2017-01-01T06:56:30.000  -1.057852049645804e+04   4.082333007501460e+04   8.503503430922019e-01  -2.976593616467138e+00  -7.683259372847033e-01   2.273251988373561e-05
2017-01-01T06:56:40.000  -1.060828361880525e+04   4.081563596814185e+04   8.505776316078099e-01  -2.976030643130179e+00  -7.704953822502847e-01   2.272518257179475e-05
2017-01-01T06:56:50.000  -1.063804110378008e+04   4.080792016882000e+04   8.508048467200301e-01  -2.975466089225783e+00  -7.726644132283268e-01   2.271783880060782e-05
2017-01-01T06:57:00.000  -1.066779293559016e+04   4.080018268119120e+04   8.510319883642885e-01  -2.974899955060098e+00  -7.748330290691705e-01   2.271048855587567e-05
2017-01-01T06:57:10.000  -1.069753909846702e+04   4.079242350940326e+04   8.512590564760261e-01  -2.974332240939674e+00  -7.770012286249024e-01   2.270313182329544e-05
2017-01-01T06:57:20.000  -1.072727957627467e+04   4.078464265771406e+04   8.514860509877142e-01  -2.973762947179110e+00  -7.791690107208277e-01   2.269576858867536e-05
2017-01-01T06:57:30.000  -1.075701435298402e+04   4.077684013036556e+04   8.517129718324742e-01  -2.973192074091837e+00  -7.813363741900504e-01   2.268839883779952e-05
2017-01-01T06:57:40.000  -1.078674341249642e+04   4.076901593163037e+04   8.519398189427293e-01  -2.972619621993518e+00  -7.835033178606092e-01   2.268102255647745e-05
2017-01-01T06:57:50.000  -1.081646673932759e+04   4.076117006563204e+04   8.521665922554259e-01  -2.972045591188909e+00  -7.856698406053300e-01   2.267363973035960e-05
2017-01-01T06:58:00.000  -1.084618431792536e+04   4.075330253652413e+04   8.523932917068244e-01  -2.971469981984953e+00  -7.878359412920967e-01   2.266625034512093e-05
2017-01-01T06:58:10.000  -1.087589613282437e+04   4.074541334844999e+04   8.526199172336832e-01  -2.970892794687844e+00  -7.900016187951281e-01   2.265885438641868e-05
2017-01-01T06:58:20.000  -1.090560216826055e+04   4.073750250564210e+04   8.528464687703102e-01  -2.970314029610286e+00  -7.921668719668724e-01   2.265145183999619e-05
2017-01-01T06:58:30.000  -1.093530240845752e+04   4.072957001234900e+04   8.530729462507574e-01  -2.969733687066160e+00  -7.943316996588909e-01   2.264404269160495e-05
2017-01-01T06:58:40.000  -1.096499683762638e+04   4.072161587283438e+04   8.532993496088105e-01  -2.969151767370444e+00  -7.964961007218352e-01   2.263662692700541e-05
2017-01-01T06:58:50.000  -1.099468543968092e+04   4.071364009145622e+04   8.535256787758266e-01  -2.968568270845014e+00  -7.986600739846926e-01   2.262920453203971e-05
2017-01-01T06:59:00.000  -1.102436819862146e+04   4.070564267256120e+04   8.537519336836554e-01  -2.967983197810908e+00  -8.008236182827659e-01   2.262177549253274e-05
2017-01-01T06:59:10.000  -1.105404509838359e+04   4.069762362052585e+04   8.539781142634868e-01  -2.967396548591345e+00  -8.029867324466430e-01   2.261433979433235e-05
2017-01-01T06:59:20.000  -1.108371612350790e+04   4.068958293957586e+04   8.542042204509552e-01  -2.966808323498499e+00  -8.051494153510171e-01   2.260689742313114e-05
2017-01-01T06:59:30.000  -1.111338125847018e+04   4.068152063396656e+04   8.544302521810352e-01  -2.966218522846716e+00  -8.073116658658631e-01   2.259944836464567e-05
2017-01-01T06:59:40.000  -1.114304048783297e+04   4.067343670794256e+04   8.546562093891956e-01  -2.965627146949546e+00  -8.094734828674874e-01   2.259199260457400e-05
2017-01-01T06:59:50.000  -1.117269379586065e+04   4.066533116583946e+04   8.548820920084647e-01  -2.965034196127189e+00  -8.116348652104669e-01   2.258453012870775e-05
2017-01-01T07:00:00.000  -1.120234116680546e+04   4.065720401200913e+04   8.551078999716111e-01  -2.964439670701034e+00  -8.137958117485008e-01   2.257706092284457e-05
2017-01-01T07:00:10.000  -1.123198258490717e+04   4.064905525081857e+04   8.553336332111429e-01  -2.963843570993570e+00  -8.159563213343857e-01   2.256958497279401e-05
2017-01-01T07:00:20.000  -1.126161803410889e+04   4.064088488673109e+04   8.555592916571439e-01  -2.963245897334321e+00  -8.181163927992998e-01   2.256210226443193e-05
2017-01-01T07:00:30.000  -1.129124749844017e+04   4.063269292419805e+04   8.557848752401901e-01  -2.962646650051940e+00  -8.202760249807307e-01   2.255461278362123e-05
2017-01-01T07:00:40.000  -1.132087096186317e+04   4.062447936770198e+04   8.560103838901777e-01  -2.962045829477350e+00  -8.224352167112565e-01   2.254711651624426e-05
2017-01-01T07:00:50.000  -1.135048840895235e+04   4.061624422156815e+04   8.562358175414969e-01  -2.961443435929960e+00  -8.245939668680933e-01   2.253961344804928e-05
2017-01-01T07:01:00.000  -1.138009982421298e+04   4.060798749015330e+04   8.564611761278461e-01  -2.960839469731482e+00  -8.267522743234180e-01   2.253210356480448e-05
2017-01-01T07:01:10.000  -1.140970519225714e+04   4.059970917779708e+04   8.566864595835687e-01  -2.960233931202369e+00  -8.289101379571998e-01   2.252458685226015e-05
2017-01-01T07:01:20.000  -1.143930449733031e+04   4.059140928895174e+04   8.569116678400501e-01  -2.959626820671314e+00  -8.310675566226938e-01   2.251706329624997e-05
2017-01-01T07:01:30.000  -1.146889772370218e+04   4.058308782807572e+04   8.571368008286933e-01  -2.959018138467441e+00  -8.332245291749240e-01   2.250953288261068e-05
